[
    {
        "OBJECT_NAME": "BEIDOU-3 M11",
        "OBJECT_ID": "2018-067B",
        "EPOCH": "2025-03-01T12:27:17.317152",
        "MEAN_MOTION": 1.86227159,
        "ECCENTRICITY": 0.0004663,
        "INCLINATION": 54.1986,
        "RA_OF_ASC_NODE": 197.0335,
        "ARG_OF_PERICENTER": 31.0104,
        "MEAN_ANOMALY": 328.9696,
        "EPHEMERIS_TYPE": 0,
        "CLASSIFICATION_TYPE": "U",
        "NORAD_CAT_ID": 43603,
        "ELEMENT_SET_NO": 999,
        "REV_AT_EPOCH": 4434,
        "BSTAR": 0,
        "MEAN_MOTION_DOT": 3.8e-07,
        "MEAN_MOTION_DDOT": 0
    },
    {
        "OBJECT_NAME": "BEIDOU-3 M13",
        "OBJECT_ID": "2018-072A",
        "EPOCH": "2025-03-01T11:29:36.286944",
        "MEAN_MOTION": 1.86231057,
        "ECCENTRICITY": 0.0008818,
        "INCLINATION": 56.2084,
        "RA_OF_ASC_NODE": 78.3088,
        "ARG_OF_PERICENTER": 300.3268,
        "MEAN_ANOMALY": 59.6417,
        "EPHEMERIS_TYPE": 0,
        "CLASSIFICATION_TYPE": "U",
        "NORAD_CAT_ID": 43622,
        "ELEMENT_SET_NO": 999,
        "REV_AT_EPOCH": 4385,
        "BSTAR": 0,
        "MEAN_MOTION_DOT": 1.8e-07,
        "MEAN_MOTION_DDOT": 0
    },
    {
        "OBJECT_NAME": "BEIDOU-3 M14",
        "OBJECT_ID": "2018-072B",
        "EPOCH": "2025-03-02T10:02:18.638592",
        "MEAN_MOTION": 1.8623102,
        "ECCENTRICITY": 0.0006278,
        "INCLINATION": 56.2111,
        "RA_OF_ASC_NODE": 78.2711,
        "ARG_OF_PERICENTER": 320.1108,
        "MEAN_ANOMALY": 39.8926,
        "EPHEMERIS_TYPE": 0,
        "CLASSIFICATION_TYPE": "U",
        "NORAD_CAT_ID": 43623,
        "ELEMENT_SET_NO": 999,
        "REV_AT_EPOCH": 4386,
        "BSTAR": 0,
        "MEAN_MOTION_DOT": 8e-08,
        "MEAN_MOTION_DDOT": 0
    },
    {
        "OBJECT_NAME": "BEIDOU-3 M16",
        "OBJECT_ID": "2018-078A",
        "EPOCH": "2025-03-02T01:00:44.198208",
        "MEAN_MOTION": 1.86232158,
        "ECCENTRICITY": 0.0008215,
        "INCLINATION": 54.5083,
        "RA_OF_ASC_NODE": 316.4857,
        "ARG_OF_PERICENTER": 20.5998,
        "MEAN_ANOMALY": 339.4909,
        "EPHEMERIS_TYPE": 0,
        "CLASSIFICATION_TYPE": "U",
        "NORAD_CAT_ID": 43647,
        "ELEMENT_SET_NO": 999,
        "REV_AT_EPOCH": 4336,
        "BSTAR": 0,
        "MEAN_MOTION_DOT": -5.3e-07,
        "MEAN_MOTION_DDOT": 0
    },
    {
        "OBJECT_NAME": "BEIDOU-3 M15",
        "OBJECT_ID": "2018-078B",
        "EPOCH": "2025-03-02T04:06:49.170816",
        "MEAN_MOTION": 1.86232004,
        "ECCENTRICITY": 0.0005127,
        "INCLINATION": 54.5039,
        "RA_OF_ASC_NODE": 316.4832,
        "ARG_OF_PERICENTER": 26.8105,
        "MEAN_ANOMALY": 333.2732,
        "EPHEMERIS_TYPE": 0,
        "CLASSIFICATION_TYPE": "U",
        "NORAD_CAT_ID": 43648,
        "ELEMENT_SET_NO": 999,
        "REV_AT_EPOCH": 4338,
        "BSTAR": 0,
        "MEAN_MOTION_DOT": -5.4e-07,
        "MEAN_MOTION_DDOT": 0
    },
    {
        "OBJECT_NAME": "BEIDOU-3 G1",
        "OBJECT_ID": "2018-085A",
        "EPOCH": "2025-03-02T14:45:35.714016",
        "MEAN_MOTION": 1.00272493,
        "ECCENTRICITY": 0.0002626,
        "INCLINATION": 2.8359,
        "RA_OF_ASC_NODE": 100.97,
        "ARG_OF_PERICENTER": 356.0021,
        "MEAN_ANOMALY": 65.0848,
        "EPHEMERIS_TYPE": 0,
        "CLASSIFICATION_TYPE": "U",
        "NORAD_CAT_ID": 43683,
        "ELEMENT_SET_NO": 999,
        "REV_AT_EPOCH": 2333,
        "BSTAR": 0,
        "MEAN_MOTION_DOT": -2.8e-06,
        "MEAN_MOTION_DDOT": 0
    },
    {
        "OBJECT_NAME": "BEIDOU-3 M17",
        "OBJECT_ID": "2018-093A",
        "EPOCH": "2025-03-01T06:01:47.072064",
        "MEAN_MOTION": 1.86228099,
        "ECCENTRICITY": 0.0006653,
        "INCLINATION": 54.1927,
        "RA_OF_ASC_NODE": 198.341,
        "ARG_OF_PERICENTER": 291.8074,
        "MEAN_ANOMALY": 68.0722,
        "EPHEMERIS_TYPE": 0,
        "CLASSIFICATION_TYPE": "U",
        "NORAD_CAT_ID": 43706,
        "ELEMENT_SET_NO": 999,
        "REV_AT_EPOCH": 4273,
        "BSTAR": 0,
        "MEAN_MOTION_DOT": 3.7e-07,
        "MEAN_MOTION_DDOT": 0
    },
    {
        "OBJECT_NAME": "BEIDOU-3 M18",
        "OBJECT_ID": "2018-093B",
        "EPOCH": "2025-03-02T17:24:31.128192",
        "MEAN_MOTION": 1.86229527,
        "ECCENTRICITY": 0.0005747,
        "INCLINATION": 54.1933,
        "RA_OF_ASC_NODE": 198.2828,
        "ARG_OF_PERICENTER": 333.7206,
        "MEAN_ANOMALY": 26.2071,
        "EPHEMERIS_TYPE": 0,
        "CLASSIFICATION_TYPE": "U",
        "NORAD_CAT_ID": 43707,
        "ELEMENT_SET_NO": 999,
        "REV_AT_EPOCH": 4275,
        "BSTAR": 0,
        "MEAN_MOTION_DOT": 4.5e-07,
        "MEAN_MOTION_DDOT": 0
    },
    {
        "OBJECT_NAME": "BEIDOU-3 IGSO-1",
        "OBJECT_ID": "2019-023A",
        "EPOCH": "2025-03-02T08:27:47.335680",
        "MEAN_MOTION": 1.00276677,
        "ECCENTRICITY": 0.0022433,
        "INCLINATION": 58.0262,
        "RA_OF_ASC_NODE": 42.5251,
        "ARG_OF_PERICENTER": 227.3634,
        "MEAN_ANOMALY": 137.0785,
        "EPHEMERIS_TYPE": 0,
        "CLASSIFICATION_TYPE": "U",
        "NORAD_CAT_ID": 44204,
        "ELEMENT_SET_NO": 999,
        "REV_AT_EPOCH": 248,
        "BSTAR": 0,
        "MEAN_MOTION_DOT": -2e-06,
        "MEAN_MOTION_DDOT": 0
    },
    {
        "OBJECT_NAME": "BEIDOU-2 G8",
        "OBJECT_ID": "2019-027A",
        "EPOCH": "2025-03-02T15:02:54.513312",
        "MEAN_MOTION": 1.00269461,
        "ECCENTRICITY": 0.0005838,
        "INCLINATION": 1.4208,
        "RA_OF_ASC_NODE": 74.5269,
        "ARG_OF_PERICENTER": 248.4032,
        "MEAN_ANOMALY": 207.9219,
        "EPHEMERIS_TYPE": 0,
        "CLASSIFICATION_TYPE": "U",
        "NORAD_CAT_ID": 44231,
        "ELEMENT_SET_NO": 999,
        "REV_AT_EPOCH": 2135,
        "BSTAR": 0,
        "MEAN_MOTION_DOT": -2.51e-06,
        "MEAN_MOTION_DDOT": 0
    },
    {
        "OBJECT_NAME": "BEIDOU-3 IGSO-2",
        "OBJECT_ID": "2019-035A",
        "EPOCH": "2025-03-02T20:37:47.494272",
        "MEAN_MOTION": 1.00258621,
        "ECCENTRICITY": 0.0036554,
        "INCLINATION": 55.1998,
        "RA_OF_ASC_NODE": 163.0008,
        "ARG_OF_PERICENTER": 201.1691,
        "MEAN_ANOMALY": 223.1247,
        "EPHEMERIS_TYPE": 0,
        "CLASSIFICATION_TYPE": "U",
        "NORAD_CAT_ID": 44337,
        "ELEMENT_SET_NO": 999,
        "REV_AT_EPOCH": 2097,
        "BSTAR": 0,
        "MEAN_MOTION_DOT": -1.4e-06,
        "MEAN_MOTION_DDOT": 0
    },
    {
        "OBJECT_NAME": "BEIDOU-3 M24",
        "OBJECT_ID": "2019-061A",
        "EPOCH": "2025-03-01T17:19:32.448576",
        "MEAN_MOTION": 1.86228888,
        "ECCENTRICITY": 0.0008158,
        "INCLINATION": 54.4202,
        "RA_OF_ASC_NODE": 198.6625,
        "ARG_OF_PERICENTER": 15.3627,
        "MEAN_ANOMALY": 344.614,
        "EPHEMERIS_TYPE": 0,
        "CLASSIFICATION_TYPE": "U",
        "NORAD_CAT_ID": 44542,
        "ELEMENT_SET_NO": 999,
        "REV_AT_EPOCH": 3699,
        "BSTAR": 0,
        "MEAN_MOTION_DOT": 4e-07,
        "MEAN_MOTION_DDOT": 0
    },
    {
        "OBJECT_NAME": "BEIDOU-3 M23",
        "OBJECT_ID": "2019-061B",
        "EPOCH": "2025-03-02T08:37:04.656288",
        "MEAN_MOTION": 1.86228984,
        "ECCENTRICITY": 0.0004728,
        "INCLINATION": 54.4188,
        "RA_OF_ASC_NODE": 198.6096,
        "ARG_OF_PERICENTER": 10.9039,
        "MEAN_ANOMALY": 328.9342,
        "EPHEMERIS_TYPE": 0,
        "CLASSIFICATION_TYPE": "U",
        "NORAD_CAT_ID": 44543,
        "ELEMENT_SET_NO": 999,
        "REV_AT_EPOCH": 3700,
        "BSTAR": 0,
        "MEAN_MOTION_DOT": 4.4e-07,
        "MEAN_MOTION_DDOT": 0
    }
]