BEIDOU-3 M11            
1 43603U 18067B   25060.51895043  .00000038  00000+0  00000+0 0  9995
2 43603  54.1986 197.0335 0004663  31.0104 328.9696  1.86227159 44346
BEIDOU-3 M13            
1 43622U 18072A   25060.47889221  .00000018  00000+0  00000+0 0  9996
2 43622  56.2084  78.3088 0008818 300.3268  59.6417  1.86231057 43850
BEIDOU-3 M14            
1 43623U 18072B   25061.41827128  .00000008  00000+0  00000+0 0  9999
2 43623  56.2111  78.2711 0006278 320.1108  39.8926  1.86231020 43861
BEIDOU-3 M16            
1 43647U 18078A   25061.04217822 -.00000053  00000+0  00000+0 0  9995
2 43647  54.5083 316.4857 0008215  20.5998 339.4909  1.86232158 43363
BEIDOU-3 M15            
1 43648U 18078B   25061.17140244 -.00000054  00000+0  00000+0 0  9994
2 43648  54.5039 316.4832 0005127  26.8105 333.2732  1.86232004 43384
BEIDOU-3 G1             
1 43683U 18085A   25061.61499669 -.00000280  00000+0  00000+0 0  9999
2 43683   2.8359 100.9700 0002626 356.0021  65.0848  1.00272493 23333
BEIDOU-3 M17            
1 43706U 18093A   25060.25123926  .00000037  00000+0  00000+0 0  9992
2 43706  54.1927 198.3410 0006653 291.8074  68.0722  1.86228099 42733
BEIDOU-3 M18            
1 43707U 18093B   25061.72536028  .00000045  00000+0  00000+0 0  9996
2 43707  54.1933 198.2828 0005747 333.7206  26.2071  1.86229527 42751
BEIDOU-3 IGSO-1         
1 44204U 19023A   25061.35263120 -.00000200  00000+0  00000+0 0  9996
2 44204  58.0262  42.5251 0022433 227.3634 137.0785  1.00276677  2480
BEIDOU-2 G8             
1 44231U 19027A   25061.62701983 -.00000251  00000+0  00000+0 0  9990
2 44231   1.4208  74.5269 0005838 248.4032 207.9219  1.00269461 21351
BEIDOU-3 IGSO-2         
1 44337U 19035A   25061.85957748 -.00000140  00000+0  00000+0 0  9990
2 44337  55.1998 163.0008 0036554 201.1691 223.1247  1.00258621 20975
BEIDOU-3 M24            
1 44542U 19061A   25060.72190334  .00000040  00000+0  00000+0 0  9990
2 44542  54.4202 198.6625 0008158  15.3627 344.6140  1.86228888 36991
BEIDOU-3 M23            
1 44543U 19061B   25061.35908167  .00000044  00000+0  00000+0 0  9996
2 44543  54.4188 198.6096 0004728  10.9039 328.9342  1.86228984 37003
